[{"OBJECT_NAME":"LEMUR-2-DEMBITZ","OBJECT_ID":"2017-042T","EPOCH":"2026-03-09T11:23:53.232288","MEAN_MOTION":15.26947128,"ECCENTRICITY":0.00069617,"INCLINATION":97.3807,"RA_OF_ASC_NODE":250.9241,"ARG_OF_PERICENTER":17.1421,"MEAN_ANOMALY":343.0051,"EPHEMERIS_TYPE":0,"CLASSIFICATION_TYPE":"U","NORAD_CAT_ID":42842,"ELEMENT_SET_NO":999,"REV_AT_EPOCH":47311,"BSTAR":0.00076560825,"MEAN_MOTION_DOT":0.00020231,"MEAN_MOTION_DDOT":0},{"OBJECT_NAME":"STARLINK-30440","OBJECT_ID":"2023-147L","EPOCH":"2026-03-09T22:00:01.999584","MEAN_MOTION":15.22871623,"ECCENTRICITY":0.00018121,"INCLINATION":43.0002,"RA_OF_ASC_NODE":324.1324,"ARG_OF_PERICENTER":277.8781,"MEAN_ANOMALY":320.8166,"EPHEMERIS_TYPE":0,"CLASSIFICATION_TYPE":"U","NORAD_CAT_ID":57923,"ELEMENT_SET_NO":999,"REV_AT_EPOCH":577,"BSTAR":0.047292502,"MEAN_MOTION_DOT":0.01234313,"MEAN_MOTION_DDOT":0}]
